[
  {
    "name": "TOMORROW-S1",
    "line1": "1 60479U 24149M   26171.46590854  .00006061  00000+0  19407-3 0  9990",
    "line2": "2 60479  97.3745 251.9280 0001876 197.8929 162.2248 15.32758998102596"
  },
  {
    "name": "FLOCK 4BE-18",
    "line1": "1 60480U 24149N   26171.19595238  .00013963  00000+0  33007-3 0  9994",
    "line2": "2 60480  97.3725 254.9572 0003139 221.9124 138.1883 15.41937685102772"
  },
  {
    "name": "FLOCK 4BE-7",
    "line1": "1 60481U 24149P   26171.20643536  .00016911  00000+0  41973-3 0  9999",
    "line2": "2 60481  97.3754 254.3009 0002366 221.4457 138.6610 15.40417822102711"
  },
  {
    "name": "FLOCK 4BE-26",
    "line1": "1 60484U 24149S   26171.23355243  .00122310  00000+0  10476-2 0  9994",
    "line2": "2 60484  97.3642 257.4110 0005333 205.7620 154.3377 15.69030217102941"
  },
  {
    "name": "TOMORROW-S2",
    "line1": "1 60485U 24149T   26171.03937789  .00006352  00000+0  20312-3 0  9992",
    "line2": "2 60485  97.3814 251.9946 0001483 240.6913 119.4181 15.32784637102525"
  },
  {
    "name": "FLOCK 4BE-36",
    "line1": "1 60486U 24149U   26171.23060551  .00013651  00000+0  31361-3 0  9995",
    "line2": "2 60486  97.3741 255.6959 0002579 238.1842 121.9155 15.42802726102823"
  },
  {
    "name": "FLOCK 4BE-25",
    "line1": "1 60487U 24149V   26171.46911346  .00010756  00000+0  28154-3 0  9997",
    "line2": "2 60487  97.3796 254.6419 0001689 205.0260 155.0904 15.38902285102749"
  },
  {
    "name": "FLOCK 4BE-31",
    "line1": "1 60488U 24149W   26171.19404256  .00017515  00000+0  38341-3 0  9994",
    "line2": "2 60488  97.3796 256.5251 0001693 225.3200 134.7910 15.44188692102846"
  },
  {
    "name": "FLOCK 4BE-20",
    "line1": "1 60489U 24149X   26171.17400751  .00011725  00000+0  31451-3 0  9991",
    "line2": "2 60489  97.3693 253.2167 0002739 233.4617 126.6376 15.38120254102677"
  },
  {
    "name": "FLOCK 4BE-23",
    "line1": "1 60490U 24149Y   26171.03484195  .00011520  00000+0  31296-3 0  9992",
    "line2": "2 60490  97.3775 253.4547 0002262 241.3079 118.7938 15.37732011102636"
  },
  {
    "name": "FLOCK 4BE-15",
    "line1": "1 60491U 24149Z   26171.03776575  .00082460  00000+0  10082-2 0  9999",
    "line2": "2 60491  97.3678 256.5250 0003423 232.2079 127.8868 15.60137617102879"
  },
  {
    "name": "FLOCK 4BE-17",
    "line1": "1 60492U 24149AA  26171.21006281  .00012363  00000+0  31331-3 0  9996",
    "line2": "2 60492  97.3770 254.6033 0002377 220.8171 139.2897 15.39855558102724"
  },
  {
    "name": "NUSAT-50 (NANCY ROMAN)",
    "line1": "1 60493U 24149AB  26170.78470753  .00007543  00000+0  26317-3 0  9999",
    "line2": "2 60493  97.3784 252.0226 0003709 166.0298 194.1046 15.29892594102521"
  },
  {
    "name": "FLOCK 4BE-22",
    "line1": "1 60494U 24149AC  26171.18890082  .00013554  00000+0  32797-3 0  9994",
    "line2": "2 60494  97.3728 254.7788 0002601 237.8392 122.2602 15.41240849102764"
  },
  {
    "name": "FLOCK 4BE-34",
    "line1": "1 60495U 24149AD  26171.46577588  .00012183  00000+0  29512-3 0  9997",
    "line2": "2 60495  97.3777 255.8828 0002391 246.7615 113.3380 15.41233948102833"
  },
  {
    "name": "TYCHE",
    "line1": "1 60496U 24149AE  26171.47982606  .00003463  00000+0  13749-3 0  9996",
    "line2": "2 60496  97.3752 249.2528 0000899 215.0951 145.0228 15.26010703102405"
  },
  {
    "name": "FLOCK 4BE-32",
    "line1": "1 60497U 24149AF  26171.04293401  .00015606  00000+0  36492-3 0  9990",
    "line2": "2 60497  97.3718 255.0009 0002674 242.2970 117.8006 15.42240995102770"
  },
  {
    "name": "NUSAT-48 (HENRIETTA LE*)",
    "line1": "1 60498U 24149AG  26171.23116093  .00007773  00000+0  27106-3 0  9991",
    "line2": "2 60498  97.3912 252.7144 0002470 258.0273 102.0691 15.29903935102609"
  },
  {
    "name": "FLOCK 4BE-30",
    "line1": "1 60499U 24149AH  26171.47062337  .00125967  00000+0  17065-2 0  9997",
    "line2": "2 60499  97.3766 257.1010 0004804 230.1488 129.9345 15.57242964102287"
  },
  {
    "name": "NUSAT-49 (KLARA DAN VO*)",
    "line1": "1 60500U 24149AJ  26171.47067468  .00007089  00000+0  24680-3 0  9996",
    "line2": "2 60500  97.3777 252.7358 0000694 312.9841  47.1341 15.29989670102630"
  },
  {
    "name": "FLOCK 4BE-11",
    "line1": "1 60501U 24149AK  26171.23056455  .00014492  00000+0  32994-3 0  9998",
    "line2": "2 60501  97.3696 255.4241 0002785 242.5833 117.5132 15.43058603102824"
  },
  {
    "name": "YAM-7",
    "line1": "1 60504U 24149AN  26171.19282259  .00005879  00000+0  19370-3 0  9991",
    "line2": "2 60504  97.3780 251.4304 0001820 287.5233  72.5809 15.31852973102515"
  },
  {
    "name": "FLOCK 4BE-24",
    "line1": "1 60505U 24149AP  26171.21694257  .00016897  00000+0  38285-3 0  9998",
    "line2": "2 60505  97.3712 255.6671 0002914 257.1798 102.9124 15.43167776102834"
  },
  {
    "name": "LUR-1",
    "line1": "1 60506U 24149AQ  26171.18651330  .00005647  00000+0  19624-3 0  9997",
    "line2": "2 60506  97.3736 249.9934 0002602 303.9711  56.1282 15.30137974102432"
  },
  {
    "name": "TANAGER-1",
    "line1": "1 60507U 24149AR  26171.26869888  .00001299  00000+0  29574-4 0  9991",
    "line2": "2 60507  97.2525 265.5165 0002975 287.1380  72.9543 15.44828849103515"
  },
  {
    "name": "EAGLEEYE",
    "line1": "1 60508U 24149AS  26171.22734169  .00083346  00000+0  65090-3 0  9996",
    "line2": "2 60508  97.3718 264.7338 0004548 228.7265 131.3607 15.71393531103410"
  },
  {
    "name": "FLOCK 4BE-29",
    "line1": "1 60509U 24149AT  26171.48485854  .00014027  00000+0  30712-3 0  9992",
    "line2": "2 60509  97.3807 257.4076 0001450 268.6256  91.4826 15.44233040102922"
  },
  {
    "name": "TRANSPORTER-11 OBJECT AU",
    "line1": "1 60510U 24149AU  26170.78655393  .00012458  00000+0  31132-3 0  9996",
    "line2": "2 60510  97.3727 254.5279 0002243 273.5736  86.5253 15.40282130102713"
  },
  {
    "name": "FLOCK 4BE-2",
    "line1": "1 60511U 24149AV  26171.47450170  .00051495  00000+0  82249-3 0  9999",
    "line2": "2 60511  97.3829 258.8638 0003691 240.8493 119.2391 15.53022547103017"
  },
  {
    "name": "FLOCK 4BE-13",
    "line1": "1 60512U 24149AW  26171.46565235  .00011803  00000+0  27918-3 0  9999",
    "line2": "2 60512  97.3717 255.9111 0003094 243.7349 116.3580 15.41960573102875"
  }
]