OBJECT_NAME,OBJECT_ID,EPOCH,MEAN_MOTION,ECCENTRICITY,INCLINATION,RA_OF_ASC_NODE,ARG_OF_PERICENTER,MEAN_ANOMALY,EPHEMERIS_TYPE,CLASSIFICATION_TYPE,NORAD_CAT_ID,ELEMENT_SET_NO,REV_AT_EPOCH,BSTAR,MEAN_MOTION_DOT,MEAN_MOTION_DDOT
TOMORROW-S1,2024-149M,2026-06-20T11:10:54.497856,15.32758998,.0001876,97.3745,251.9280,197.8929,162.2248,0,U,60479,999,10259,.19407E-3,.6061E-4,0
FLOCK 4BE-18,2024-149N,2026-06-20T04:42:10.285632,15.41937685,.00031399,97.3725,254.9572,221.9124,138.1883,0,U,60480,999,10277,.33006803E-3,.13963E-3,0
FLOCK 4BE-7,2024-149P,2026-06-20T04:57:16.015104,15.40417822,.00023663,97.3754,254.3009,221.4457,138.6610,0,U,60481,999,10271,.41973048E-3,.16911E-3,0
FLOCK 4BE-26,2024-149S,2026-06-20T05:36:18.929952,15.69030217,.0005333,97.3642,257.4110,205.7620,154.3377,0,U,60484,999,10294,.10476E-2,.12231E-2,0
TOMORROW-S2,2024-149T,2026-06-20T00:56:42.249696,15.32784637,.00014833,97.3814,251.9946,240.6913,119.4181,0,U,60485,999,10252,.20312427E-3,.6352E-4,0
FLOCK 4BE-36,2024-149U,2026-06-20T05:32:04.316064,15.42802726,.0002579,97.3741,255.6959,238.1842,121.9155,0,U,60486,999,10282,.31361E-3,.13651E-3,0
FLOCK 4BE-25,2024-149V,2026-06-20T11:15:31.402944,15.38902285,.0001689,97.3796,254.6419,205.0260,155.0904,0,U,60487,999,10274,.28154E-3,.10756E-3,0
FLOCK 4BE-31,2024-149W,2026-06-20T04:39:25.277184,15.44188692,.00016931,97.3796,256.5251,225.3200,134.7910,0,U,60488,999,10284,.38340626E-3,.17515E-3,0
FLOCK 4BE-20,2024-149X,2026-06-20T04:10:34.248864,15.38120254,.00027392,97.3693,253.2167,233.4617,126.6376,0,U,60489,999,10267,.31450726E-3,.11725E-3,0
FLOCK 4BE-23,2024-149Y,2026-06-20T00:50:10.344480,15.37732011,.00022629,97.3775,253.4547,241.3079,118.7938,0,U,60490,999,10263,.31296027E-3,.1152E-3,0
FLOCK 4BE-15,2024-149Z,2026-06-20T00:54:22.960800,15.60137617,.00034237,97.3678,256.5250,232.2079,127.8868,0,U,60491,999,10287,.10081858E-2,.8246E-3,0
FLOCK 4BE-17,2024-149AA,2026-06-20T05:02:29.426784,15.39855558,.00023779,97.3770,254.6033,220.8171,139.2897,0,U,60492,999,10272,.31331443E-3,.12363E-3,0
NUSAT-50 (NANCY ROMAN),2024-149AB,2026-06-19T18:49:58.730592,15.29892594,.0003709,97.3784,252.0226,166.0298,194.1046,0,U,60493,999,10252,.26316997E-3,.7543E-4,0
FLOCK 4BE-22,2024-149AC,2026-06-20T04:32:01.030848,15.41240849,.00026011,97.3728,254.7788,237.8392,122.2602,0,U,60494,999,10276,.32797037E-3,.13554E-3,0
FLOCK 4BE-34,2024-149AD,2026-06-20T11:10:43.036032,15.41233948,.0002391,97.3777,255.8828,246.7615,113.3380,0,U,60495,999,10283,.29512E-3,.12183E-3,0
TYCHE,2024-149AE,2026-06-20T11:30:56.971584,15.26010703,.0000899,97.3752,249.2528,215.0951,145.0228,0,U,60496,999,10240,.13749E-3,.3463E-4,0
FLOCK 4BE-32,2024-149AF,2026-06-20T01:01:49.498464,15.42240995,.00026742,97.3718,255.0009,242.2970,117.8006,0,U,60497,999,10277,.36491735E-3,.15606E-3,0
NUSAT-48 (HENRIETTA LEAVITT),2024-149AG,2026-06-20T05:32:52.304352,15.29903935,.000247,97.3912,252.7144,258.0273,102.0691,0,U,60498,999,10260,.27106E-3,.7773E-4,0
FLOCK 4BE-30,2024-149AH,2026-06-20T11:17:41.859168,15.57242964,.0004804,97.3766,257.1010,230.1488,129.9345,0,U,60499,999,10228,.17065E-2,.125967E-2,0
NUSAT-49 (KLARA DAN VON NEUMANN),2024-149AJ,2026-06-20T11:17:46.292352,15.29989670,.0000694,97.3777,252.7358,312.9841,47.1341,0,U,60500,999,10263,.2468E-3,.7089E-4,0
FLOCK 4BE-11,2024-149AK,2026-06-20T05:32:00.777120,15.43058603,.0002785,97.3696,255.4241,242.5833,117.5132,0,U,60501,999,10282,.32994E-3,.14492E-3,0
YAM-7,2024-149AN,2026-06-20T04:37:39.871776,15.31852973,.00018204,97.3780,251.4304,287.5233,72.5809,0,U,60504,999,10251,.19370474E-3,.5879E-4,0
FLOCK 4BE-24,2024-149AP,2026-06-20T05:12:23.838048,15.43167776,.0002914,97.3712,255.6671,257.1798,102.9124,0,U,60505,999,10283,.38285E-3,.16897E-3,0
LUR-1,2024-149AQ,2026-06-20T04:28:34.749120,15.30137974,.00026026,97.3736,249.9934,303.9711,56.1282,0,U,60506,999,10243,.19623974E-3,.5647E-4,0
TANAGER-1,2024-149AR,2026-06-20T06:26:55.583232,15.44828849,.0002975,97.2525,265.5165,287.1380,72.9543,0,U,60507,999,10351,.29574E-4,.1299E-4,0
EAGLEEYE,2024-149AS,2026-06-20T05:27:22.322016,15.71393531,.0004548,97.3718,264.7338,228.7265,131.3607,0,U,60508,999,10341,.6509E-3,.83346E-3,0
FLOCK 4BE-29,2024-149AT,2026-06-20T11:38:11.777856,15.44233040,.000145,97.3807,257.4076,268.6256,91.4826,0,U,60509,999,10292,.30712E-3,.14027E-3,0
TRANSPORTER-11 OBJECT AU,2024-149AU,2026-06-19T18:52:38.259552,15.40282130,.00022433,97.3727,254.5279,273.5736,86.5253,0,U,60510,999,10271,.31132352E-3,.12458E-3,0
FLOCK 4BE-2,2024-149AV,2026-06-20T11:23:16.946880,15.53022547,.0003691,97.3829,258.8638,240.8493,119.2391,0,U,60511,999,10301,.82249E-3,.51495E-3,0
FLOCK 4BE-13,2024-149AW,2026-06-20T11:10:32.363040,15.41960573,.0003094,97.3717,255.9111,243.7349,116.3580,0,U,60512,999,10287,.27918E-3,.11803E-3,0
